[{"OBJECT_NAME":"BEIDOU-3 G3 (PRN 143)","OBJECT_ID":"2020-040A","EPOCH":"2026-04-27T00:21:40.142016","MEAN_MOTION":1.00270278,"ECCENTRICITY":0.0003763,"INCLINATION":2.3237,"RA_OF_ASC_NODE":67.2979,"ARG_OF_PERICENTER":329.8404,"MEAN_ANOMALY":293.8276,"EPHEMERIS_TYPE":0,"CLASSIFICATION_TYPE":"U","NORAD_CAT_ID":45807,"ELEMENT_SET_NO":999,"REV_AT_EPOCH":2155,"BSTAR":0,"MEAN_MOTION_DOT":-3.62e-6,"MEAN_MOTION_DDOT":0},{"OBJECT_NAME":"GALAXY 30 (WAAS/PRN 135)","OBJECT_ID":"2020-056C","EPOCH":"2026-04-27T00:57:06.743232","MEAN_MOTION":1.00271333,"ECCENTRICITY":0.0002527,"INCLINATION":0.0126,"RA_OF_ASC_NODE":236.3465,"ARG_OF_PERICENTER":172.8147,"MEAN_ANOMALY":55.1468,"EPHEMERIS_TYPE":0,"CLASSIFICATION_TYPE":"U","NORAD_CAT_ID":46114,"ELEMENT_SET_NO":999,"REV_AT_EPOCH":2078,"BSTAR":0,"MEAN_MOTION_DOT":0,"MEAN_MOTION_DDOT":0},{"OBJECT_NAME":"QZS-1R (QZSS/PRN 196)","OBJECT_ID":"2021-096A","EPOCH":"2026-04-27T05:18:38.510784","MEAN_MOTION":1.00272987,"ECCENTRICITY":0.07514359,"INCLINATION":37.3604,"RA_OF_ASC_NODE":80.3327,"ARG_OF_PERICENTER":270.8549,"MEAN_ANOMALY":79.3818,"EPHEMERIS_TYPE":0,"CLASSIFICATION_TYPE":"U","NORAD_CAT_ID":49336,"ELEMENT_SET_NO":999,"REV_AT_EPOCH":1649,"BSTAR":0,"MEAN_MOTION_DOT":-2.37e-6,"MEAN_MOTION_DDOT":0},{"OBJECT_NAME":"QZS-6 (QZSS/PRN 200)","OBJECT_ID":"2025-023A","EPOCH":"2026-04-27T04:36:21.692736","MEAN_MOTION":1.00271474,"ECCENTRICITY":0.00027133,"INCLINATION":0.0139,"RA_OF_ASC_NODE":72.0745,"ARG_OF_PERICENTER":334.0586,"MEAN_ANOMALY":328.6256,"EPHEMERIS_TYPE":0,"CLASSIFICATION_TYPE":"U","NORAD_CAT_ID":62876,"ELEMENT_SET_NO":999,"REV_AT_EPOCH":444,"BSTAR":0,"MEAN_MOTION_DOT":0,"MEAN_MOTION_DDOT":0}]
